{"type": "FeatureCollection", "features": [ {"type": "Feature", "properties": {"norad_id": 64902, "name": "CO3D 2", "group": "resource", "lat": 34.07191391931456, "lon": 72.15822194686062, "alt_km": 502.5911091080252, "timestamp": "2025-12-27T03:58:43.836064+00:00", "meta": {"OBJECT_NAME": "CO3D 2", "OBJECT_ID": "2025-156D", "EPOCH": "2025-12-26T19:55:45.619104", "MEAN_MOTION": 15.20209211, "ECCENTRICITY": 8.12e-05, "INCLINATION": 97.4339, "RA_OF_ASC_NODE": 76.894, "ARG_OF_PERICENTER": 61.4252, "MEAN_ANOMALY": 298.7065, "EPHEMERIS_TYPE": 0, "CLASSIFICATION_TYPE": "U", "NORAD_CAT_ID": 64902, "ELEMENT_SET_NO": 999, "REV_AT_EPOCH": 2334, "BSTAR": 0.00023633, "MEAN_MOTION_DOT": 5.053e-05, "MEAN_MOTION_DDOT": 0}, "tle": {"line1": "1 64902U 25156D   25360.83038911  .00005053  00000+0  23633-3 0  9991", "line2": "2 64902  97.4339  76.8940 0000812  61.4252 298.7065 15.20209211 23345"}}, "geometry": {"type": "Point", "coordinates": [72.15822194686062, 34.07191391931456]}}, {"type": "Feature", "properties": {"norad_id": 64903, "name": "CO3D 1", "group": "resource", "lat": 33.20385737028445, "lon": 72.3238185812794, "alt_km": 502.85362918662395, "timestamp": "2025-12-27T03:58:43.836074+00:00", "meta": {"OBJECT_NAME": "CO3D 1", "OBJECT_ID": "2025-156E", "EPOCH": "2025-12-26T12:02:03.647040", "MEAN_MOTION": 15.20191629, "ECCENTRICITY": 7.69e-05, "INCLINATION": 97.434, "RA_OF_ASC_NODE": 76.5713, "ARG_OF_PERICENTER": 74.426, "MEAN_ANOMALY": 285.706, "EPHEMERIS_TYPE": 0, "CLASSIFICATION_TYPE": "U", "NORAD_CAT_ID": 64903, "ELEMENT_SET_NO": 999, "REV_AT_EPOCH": 2329, "BSTAR": 0.00032769, "MEAN_MOTION_DOT": 7.031e-05, "MEAN_MOTION_DDOT": 0}, "tle": {"line1": "1 64903U 25156E   25360.50143110  .00007031  00000+0  32769-3 0  9992", "line2": "2 64903  97.4340  76.5713 0000769  74.4260 285.7060 15.20191629 23295"}}, "geometry": {"type": "Point", "coordinates": [72.3238185812794, 33.20385737028445]}}, {"type": "Feature", "properties": {"norad_id": 66514, "name": "SENTINEL-6B", "group": "resource", "lat": 13.22897004987465, "lon": 138.47099772022773, "alt_km": 1339.337895491838, "timestamp": "2025-12-27T03:58:43.836083+00:00", "meta": {"OBJECT_NAME": "SENTINEL-6B", "OBJECT_ID": "2025-264A", "EPOCH": "2025-12-26T18:32:03.290784", "MEAN_MOTION": 12.8092957, "ECCENTRICITY": 0.0007911, "INCLINATION": 66.0401, "RA_OF_ASC_NODE": 133.2883, "ARG_OF_PERICENTER": 269.9837, "MEAN_ANOMALY": 90.0272, "EPHEMERIS_TYPE": 0, "CLASSIFICATION_TYPE": "U", "NORAD_CAT_ID": 66514, "ELEMENT_SET_NO": 999, "REV_AT_EPOCH": 508, "BSTAR": 8.0357e-05, "MEAN_MOTION_DOT": -4.3e-07, "MEAN_MOTION_DDOT": 0}, "tle": {"line1": "1 66514U 25264A   25360.77226031 -.00000043  00000+0  80357-4 0  9999", "line2": "2 66514  66.0401 133.2883 0007911 269.9837  90.0272 12.80929570  5087"}}, "geometry": {"type": "Point", "coordinates": [138.47099772022773, 13.22897004987465]}}]}